OSCAR 7 (AO-7)          
1 07530U 74089B   26162.65147906 -.00000028  00000+0  11383-3 0  9997
2 07530 101.9901 175.8403 0012513 140.4231 346.6371 12.53697989359829
PHASE 3B (AO-10)        
1 14129U 83058B   26158.17238870 -.00000194  00000+0  00000+0 0  9992
2 14129  25.9048 221.2242 6014266 112.9115 319.2048  2.05872980295281
UOSAT 2 (UO-11)         
1 14781U 84021B   26162.71749374  .00001229  00000+0  13072-3 0  9994
2 14781  97.8055 128.3534 0007126 190.9158 169.1907 14.90769946256317
LUSAT (LO-19)           
1 20442U 90005G   26162.53069412  .00000105  00000+0  54261-4 0  9990
2 20442  98.8852 184.1803 0010820 218.5501 141.4911 14.34121495901580
EYESAT A (AO-27)        
1 22825U 93061C   26162.68565860  .00000075  00000+0  45342-4 0  9992
2 22825  98.6880 230.1011 0009459 113.9652 246.2522 14.30940798706216
ITAMSAT (IO-26)         
1 22826U 93061D   26162.66671201  .00000077  00000+0  45822-4 0  9993
2 22826  98.6828 229.9990 0010074  99.3506 260.8816 14.31367535706526
RADIO ROSTO (RS15)      
1 23439U 94085A   26162.70594668 -.00000048  00000+0 -14331-3 0  9997
2 23439  64.8187 312.0809 0155777   4.8901 355.3503 11.27583608295285
JAS-2 (FO-29)           
1 24278U 96046B   26162.54420303  .00000014  00000+0  46335-4 0  9995
2 24278  98.5245  12.1894 0350827 111.0367 252.8667 13.53273928472403
TECHSAT 1B (GO-32)      
1 25397U 98043D   26162.58543429  .00000048  00000+0  41012-4 0  9990
2 25397  99.0065 155.2028 0000734 176.4907 183.6276 14.24427354450534
ISS (ZARYA)             
1 25544U 98067A   26162.51298014  .00008593  00000+0  16294-3 0  9996
2 25544  51.6332 328.1749 0005119 173.4651 186.6405 15.49175527570872
PCSAT (NO-44)           
1 26931U 01043C   26162.64152601  .00000072  00000+0  57659-4 0  9995
2 26931  67.0509 258.6152 0006100 264.4327  95.6080 14.31954152289657
SAUDISAT 1C (SO-50)     
1 27607U 02058C   26162.55839360  .00000916  00000+0  12536-3 0  9998
2 27607  64.5506 146.4007 0075403 263.5157  95.7360 14.83034770263626
CUTE-1 (CO-55)          
1 27844U 03031E   26162.55782411  .00000255  00000+0  12921-3 0  9991
2 27844  98.6735 171.1873 0009139 194.6488 165.4428 14.24332340190876
CUBESAT XI-IV (CO-57)   
1 27848U 03031J   26162.54345883  .00000221  00000+0  11637-3 0  9998
2 27848  98.6768 170.8906 0008681 214.5229 145.5386 14.23617902190573
MOZHAETS 4 (RS22)       
1 27939U 03042A   26162.77839416  .00001143  00000+0  18428-3 0  9995
2 27939  98.3473 346.9850 0010038 289.0087 126.4243 14.73459160214758
CUBESAT XI-V            
1 28895U 05043F   26162.69508378  .00001243  00000+0  20337-3 0  9994
2 28895  98.2978 318.2017 0013309 218.8930 141.1320 14.72616955100948
CUTE-1.7+APD II (CO-65) 
1 32785U 08021C   26162.68027479  .00004985  00000+0  31570-3 0  9990
2 32785  97.8271 143.9841 0010294  55.5491 304.6708 15.09402411984361
SEEDS II (CO-66)        
1 32791U 08021J   26162.25964503  .00015274  00000+0  48820-3 0  9997
2 32791  97.7517 159.8749 0001967  23.1856 336.9473 15.32546772986382
YUBILEINY (RS30)        
1 32953U 08025A   26162.70643383 -.00000013  00000+0 -16657-3 0  9991
2 32953  82.5050 358.8506 0019075 326.2466  33.7398 12.43178720819017
KKS-1 (KISEKI)          
1 33499U 09002H   26162.65688272  .00001160  00000+0  14922-3 0  9998
2 33499  98.1193  85.0115 0006833 316.9506  43.1171 14.83110032935378
SWISSCUBE               
1 35932U 09051B   26162.21632552  .00000804  00000+0  16844-3 0  9997
2 35932  98.4041  70.0006 0005629 224.4191 135.6559 14.62470076888283
BEESAT-1                
1 35933U 09051C   26162.70183135  .00000710  00000+0  15245-3 0  9990
2 35933  98.3970  70.1415 0003979 238.6332 121.4479 14.61711768888389
ITUPSAT1                
1 35935U 09051E   26162.20832686  .00000614  00000+0  13683-3 0  9996
2 35935  98.4055  68.8386 0006132 256.4621 103.5895 14.60431670887865
XIWANG-1 (HOPE-1)       
1 36122U 09072B   26162.69594682  .00000056  00000+0  26262-3 0  9999
2 36122 100.4019 116.6153 0006822 245.0833 114.9571 13.16438983792289
O/OREOS (USA 219)       
1 37224U 10062C   26162.50369234  .00002078  00000+0  20189-3 0  9995
2 37224  71.9708  93.2127 0012428  75.4673 284.7875 14.93720190115795
JUGNU                   
1 37839U 11058B   26161.86742604  .00000399  00000+0  68784-4 0  9995
2 37839  19.9621 346.8221 0018563   6.6957  22.8320 14.13775053758139
SRMSAT                  
1 37841U 11058D   26162.51581192  .00000355  00000+0  48954-4 0  9993
2 37841  19.9715  93.7945 0011909 141.4141  27.1536 14.11574372757019
STRAND-1                
1 39090U 13009E   26162.48626012  .00000258  00000+0  10129-3 0  9990
2 39090  98.3921 342.8611 0007504 244.6927 115.3483 14.37160014696249
ZACUBE-1 (TSHEPISOSAT)  
1 39417U 13066B   26162.47489693  .00002775  00000+0  21784-3 0  9992
2 39417  97.8085 124.7807 0040210 267.7109  91.9510 15.01152947679878
GOMX-1                  
1 39430U 13066Q   26162.67036134  .00002035  00000+0  30910-3 0  9997
2 39430  97.6494   3.4819 0130209  95.0618 266.5466 14.69440241669101
